TIANMU-1 20             
1 58661U 23208B   26164.92988953  .00008700  00000+0  27765-3 0  9997
2 58661  97.4444 281.8447 0006285 347.1099  12.9982 15.32721403136928
TIANMU-1 21             
1 58662U 23208C   26164.92312734  .00009750  00000+0  28911-3 0  9996
2 58662  97.4503 284.5044 0006211 337.6264  22.4707 15.35025297137063
TIANMU-1 22             
1 58663U 23208D   26164.93558326  .00008142  00000+0  27422-3 0  9997
2 58663  97.4499 281.1572 0003530  16.1237 344.0116 15.31017754136833
TIANMU-1 15             
1 58700U 24004A   26164.95321435  .00005762  00000+0  22017-3 0  9995
2 58700  97.4662 351.1433 0007027  13.7535 346.3894 15.26994100135289
TIANMU-1 16             
1 58701U 24004B   26164.94186843  .00005921  00000+0  22807-3 0  9991
2 58701  97.4608 350.3725 0006164  19.0021 341.1447 15.26719025135283
TIANMU-1 17             
1 58702U 24004C   26164.92732022  .00006000  00000+0  23111-3 0  9994
2 58702  97.4636 350.8417 0005839  25.1858 334.9664 15.26718227135275
TIANMU-1 18             
1 58703U 24004D   26164.96978992  .00005540  00000+0  21199-3 0  9999
2 58703  97.4653 351.1376 0004353  25.4101 334.7351 15.26976971135281
INSAT-3DS               
1 58990U 24033A   26164.92077230 -.00000146  00000+0  00000+0 0  9992
2 58990   0.0431 127.3831 0000996 307.2719 241.1511  1.00271728 47036
METEOR-M2 4             
1 59051U 24039A   26164.94769895  .00000004  00000+0  21301-4 0  9998
2 59051  98.7009 124.2864 0007110 170.0607 190.0713 14.22429288118803
GOES 19                 
1 60133U 24119A   26164.88960208 -.00000238  00000+0  00000+0 0  9992
2 60133   0.0081  92.0551 0000493  82.3999 332.8067  1.00269959  6930
MTG-S1                  
1 64723U 25143A   26164.90381366 -.00000022  00000+0  00000+0 0  9995
2 64723   0.6059 338.2033 0000984  12.6018 233.3060  1.00271711  3386
METOP-SGA1              
1 65159U 25172A   26164.90092832  .00000041  00000+0  38617-4 0  9998
2 65159  98.6645 224.6886 0000923  91.5272 268.6011 14.21509237 43322
FENGYUN 3H              
1 65815U 25219A   26164.79961005  .00000041  00000+0  39945-4 0  9998
2 65815  98.6768 105.6346 0001592  78.3000 281.8355 14.19919920 36906
