OBJECT_NAME,OBJECT_ID,EPOCH,MEAN_MOTION,ECCENTRICITY,INCLINATION,RA_OF_ASC_NODE,ARG_OF_PERICENTER,MEAN_ANOMALY,EPHEMERIS_TYPE,CLASSIFICATION_TYPE,NORAD_CAT_ID,ELEMENT_SET_NO,REV_AT_EPOCH,BSTAR,MEAN_MOTION_DOT,MEAN_MOTION_DDOT
TIANMU-1 20,2023-208B,2026-06-13T22:19:02.455392,15.32721403,.00062856,97.4444,281.8447,347.1099,12.9982,0,U,58661,999,13692,.27764619E-3,.87E-4,0
TIANMU-1 21,2023-208C,2026-06-13T22:09:18.202176,15.35025297,.00062116,97.4503,284.5044,337.6264,22.4707,0,U,58662,999,13706,.28911313E-3,.975E-4,0
TIANMU-1 22,2023-208D,2026-06-13T22:27:14.393664,15.31017754,.000353,97.4499,281.1572,16.1237,344.0116,0,U,58663,999,13683,.27421892E-3,.8142E-4,0
TIANMU-1 15,2024-004A,2026-06-13T22:52:37.719840,15.26994100,.00070274,97.4662,351.1433,13.7535,346.3894,0,U,58700,999,13528,.22016979E-3,.5762E-4,0
TIANMU-1 16,2024-004B,2026-06-13T22:36:17.432352,15.26719025,.00061647,97.4608,350.3725,19.0021,341.1447,0,U,58701,999,13528,.22806935E-3,.5921E-4,0
TIANMU-1 17,2024-004C,2026-06-13T22:15:20.467008,15.26718227,.00058391,97.4636,350.8417,25.1858,334.9664,0,U,58702,999,13527,.2311078E-3,.6E-4,0
TIANMU-1 18,2024-004D,2026-06-13T23:16:29.849088,15.26976971,.00043532,97.4653,351.1376,25.4101,334.7351,0,U,58703,999,13528,.21198824E-3,.554E-4,0
INSAT-3DS,2024-033A,2026-06-13T22:05:54.726720,1.00271728,.00009962,0.0431,127.3831,307.2719,241.1511,0,U,58990,999,4703,0,-.146E-5,0
METEOR-M2 4,2024-039A,2026-06-13T22:44:41.189280,14.22429288,.00071102,98.7009,124.2864,170.0607,190.0713,0,U,59051,999,11880,.21301492E-4,.4E-7,0
GOES 19,2024-119A,2026-06-13T21:21:01.619712,1.00269959,.00004935,0.0081,92.0551,82.3999,332.8067,0,U,60133,999,693,0,-.238E-5,0
MTG-S1,2025-143A,2026-06-13T21:41:29.500224,1.00271711,.00009847,0.6059,338.2033,12.6018,233.3060,0,U,64723,999,338,0,-.22E-6,0
METOP-SGA1,2025-172A,2026-06-13T21:37:20.206848,14.21509237,.00009237,98.6645,224.6886,91.5272,268.6011,0,U,65159,999,4332,.38616932E-4,.41E-6,0
FENGYUN 3H,2025-219A,2026-06-13T19:11:26.308320,14.19919920,.00015925,98.6768,105.6346,78.3000,281.8355,0,U,65815,999,3690,.39944684E-4,.41E-6,0
